     2.100          NAVIGATION                              RINEX VERSION / TYPE
fic2rin                                 05/17/2015 01:19:07 PGM / RUN BY / DATE
                                                            END OF HEADER
21 15  5 16  8  0  0.0 -.446476507932D-03 -.352429196937D-11  .000000000000D+00
     .450000000000D+02 -.188437500000D+02  .567987944692D-08 -.256064802813D+01
    -.120326876640D-05  .225724679185D-01  .323727726936D-05  .515356181335D+04
     .547200000000D+06  .426545739174D-06 -.170173554240D+01  .428408384323D-07
     .933425774827D+00  .295906250000D+03 -.190964370579D+01 -.845963809217D-08
     .183221917643D-09  .100000000000D+01  .184400000000D+04  .000000000000D+00
     .240000000000D+01  .000000000000D+00 -.116415321827D-07  .450000000000D+02
     .540006000000D+06  .400000000000D+01
22 15  5 16  8  0  0.0  .350823160261D-03  .420641299570D-11  .000000000000D+00
     .430000000000D+02 -.223750000000D+02  .531200698070D-08  .218106528121D+01
    -.124052166939D-05  .791639671661D-02  .112410634756D-04  .515369761658D+04
     .547200000000D+06 -.242143869400D-07 -.656754103873D+00 -.150874257088D-06
     .922964241371D+00  .144406250000D+03 -.205206878424D+01 -.824998650220D-08
    -.507878298027D-09  .100000000000D+01  .184400000000D+04  .000000000000D+00
     .240000000000D+01  .000000000000D+00 -.176951289177D-07  .430000000000D+02
     .540006000000D+06  .400000000000D+01
23 15  5 16  8  0  0.0 -.108652282506D-03 -.250111042988D-11  .000000000000D+00
     .550000000000D+02  .133718750000D+03  .482841540860D-08 -.599317716446D-01
     .686943531036D-05  .101604084484D-01  .754930078983D-05  .515362459946D+04
     .547200000000D+06  .111758708954D-06  .413245711994D+00  .987201929092D-07
     .948977446891D+00  .224625000000D+03 -.268586251906D+01 -.849071081504D-08
     .215366113720D-09  .100000000000D+01  .184400000000D+04  .000000000000D+00
     .240000000000D+01  .000000000000D+00 -.200234353542D-07  .550000000000D+02
     .540006000000D+06  .400000000000D+01
24 15  5 16  8  0  0.0 -.483412295580D-04 -.682121026330D-12  .000000000000D+00
     .950000000000D+02 -.800000000000D+01  .503985278724D-08 -.815138954404D+00
    -.514090061188D-06  .323087326251D-02  .786036252975D-06  .515367069054D+04
     .547200000000D+06  .149011611938D-06  .144027919378D+01  .279396772385D-07
     .953324481631D+00  .361781250000D+03  .363967528617D+00 -.870714840197D-08
    -.203937066226D-09  .100000000000D+01  .184400000000D+04  .000000000000D+00
     .340000000000D+01  .000000000000D+00  .232830643654D-08  .950000000000D+02
     .540006000000D+06  .400000000000D+01
25 15  5 16  8  0  0.0 -.296807847917D-04 -.386535248253D-11  .000000000000D+00
     .103000000000D+03 -.119250000000D+03  .373336979555D-08 -.281593246435D+01
    -.613927841187D-05  .461394048762D-02  .102501362562D-04  .515368750000D+04
     .547200000000D+06 -.186264514923D-08  .250348708330D+01  .242143869400D-07
     .978294224258D+00  .192125000000D+03  .717409594258D+00 -.766281918718D-08
    -.142863093678D-09  .100000000000D+01  .184400000000D+04  .000000000000D+00
     .240000000000D+01  .000000000000D+00  .558793544769D-08  .103000000000D+03
     .540006000000D+06  .400000000000D+01
26 15  5 16  8  0  0.0  .296481885016D-04  .193267624127D-11  .000000000000D+00
     .970000000000D+02 -.105625000000D+03  .424089093584D-08  .167022255049D+01
    -.549480319023D-05  .292143435217D-03  .102687627077D-04  .515357597733D+04
     .547200000000D+06  .409781932831D-07  .250110414482D+01  .167638063431D-07
     .960409474350D+00  .181937500000D+03  .116038876511D+01 -.799997608826D-08
    -.205008539429D-09  .100000000000D+01  .184400000000D+04  .000000000000D+00
     .240000000000D+01  .000000000000D+00  .745058059692D-08  .970000000000D+02
     .540006000000D+06  .400000000000D+01
27 15  5 16  8  0  0.0  .722864642739D-04  .272848410532D-11  .000000000000D+00
     .580000000000D+02  .409687500000D+02  .434196657462D-08  .119722046488D+01
     .201724469662D-05  .244704051875D-02  .995770096779D-05  .515369101715D+04
     .547200000000D+06 -.316649675369D-07 -.273604321024D+01  .670552253723D-07
     .967478475910D+00  .191531250000D+03  .204259130750D+00 -.792997317236D-08
     .662527596934D-09  .100000000000D+01  .184400000000D+04  .000000000000D+00
     .240000000000D+01  .000000000000D+00  .139698386192D-08  .580000000000D+02
     .540006000000D+06  .400000000000D+01
28 15  5 16  8  0  0.0  .440141651779D-03  .261479726760D-11  .000000000000D+00
     .300000000000D+02 -.123750000000D+03  .344800076593D-08  .195919353989D+01
    -.644847750664D-05  .195199289592D-01  .119525939226D-04  .515370123100D+04
     .547200000000D+06  .279396772385D-06  .257400502317D+01 -.368803739548D-06
     .988995455379D+00  .160656250000D+03 -.166409466900D+01 -.740459414535D-08
    -.125719522437D-09  .100000000000D+01  .184400000000D+04  .000000000000D+00
     .240000000000D+01  .000000000000D+00 -.111758708954D-07  .300000000000D+02
     .540006000000D+06  .400000000000D+01
29 15  5 16  8  0  0.0  .610784627497D-03  .227373675443D-11  .000000000000D+00
     .500000000000D+01  .339375000000D+02  .413267214238D-08 -.251087503026D+01
     .190176069736D-05  .129532779101D-02  .990182161331D-05  .515376511765D+04
     .547200000000D+06 -.223517417908D-07 -.267901330046D+01 -.298023223877D-07
     .973398567443D+00  .194718750000D+03 -.612535283696D+00 -.781068248913D-08
     .752174188217D-09  .100000000000D+01  .184400000000D+04  .000000000000D+00
     .240000000000D+01  .000000000000D+00 -.977888703346D-08  .500000000000D+01
     .540006000000D+06  .400000000000D+01
30 15  5 16  8  0  0.0 -.588670372963D-04  .522959453519D-11  .000000000000D+00
     .930000000000D+02 -.382500000000D+02  .495877798158D-08 -.145498676796D+01
    -.203400850296D-05  .137082464062D-02  .120885670185D-05  .515373685646D+04
     .547200000000D+06 -.912696123123D-07  .153050057014D+01  .577419996262D-07
     .955832389890D+00  .354375000000D+03  .286610555275D+01 -.862964517365D-08
    -.226795161215D-09  .100000000000D+01  .184400000000D+04  .000000000000D+00
     .240000000000D+01  .000000000000D+00  .325962901115D-08  .930000000000D+02
     .540006000000D+06  .400000000000D+01
31 15  5 16  8  0  0.0  .315777957439D-03 -.102318153949D-11  .000000000000D+00
     .960000000000D+02 -.278437500000D+02  .455840416154D-08 -.177430089025D+01
    -.140070915222D-05  .810005073436D-02  .138580799103D-05  .515377900124D+04
     .547200000000D+06 -.117346644402D-06  .148869686826D+01 -.968575477600D-07
     .974982994035D+00  .362625000000D+03 -.516018419313D+00 -.847571019021D-08
    -.151077721565D-09  .100000000000D+01  .184400000000D+04  .000000000000D+00
     .240000000000D+01  .000000000000D+00 -.135041773319D-07  .960000000000D+02
     .540006000000D+06  .400000000000D+01
32 15  5 16  8  0  0.0 -.150020699948D-03  .966338120634D-11  .000000000000D+00
     .820000000000D+02  .862500000000D+01  .487591738724D-08 -.113504408390D+01
     .374391674995D-06  .112465757411D-01  .116769224405D-04  .515377247429D+04
     .547200000000D+06  .111758708954D-06 -.556184162046D+00 -.150874257088D-06
     .947120667377D+00  .149718750000D+03  .472374580069D-01 -.807426489697D-08
    -.316084594764D-09  .100000000000D+01  .184400000000D+04  .000000000000D+00
     .240000000000D+01  .000000000000D+00 -.372529029846D-08  .820000000000D+02
     .540006000000D+06  .400000000000D+01
10 15  5 16  7 59 44.0 -.175073742867D-03 -.159161572810D-11  .000000000000D+00
     .780000000000D+02 -.210000000000D+02  .490198990184D-08  .228565296516D+01
    -.124238431454D-05  .146847857395D-01  .129919499159D-04  .515368843269D+04
     .547184000000D+06 -.633299350739D-07 -.629895827632D+00 -.348314642906D-06
     .941391915289D+00  .116281250000D+03  .930358408659D+00 -.792247285994D-08
    -.547165648788D-09  .100000000000D+01  .184400000000D+04  .000000000000D+00
     .240000000000D+01  .000000000000D+00 -.279396772385D-08  .780000000000D+02
     .540486000000D+06  .400000000000D+01
15 15  5 16  7 59 44.0 -.249487813562D-03 -.216004991671D-11  .000000000000D+00
     .150000000000D+02  .118062500000D+03  .517092967569D-08  .399366057279D+00
     .631250441074D-05  .711802009027D-02  .872276723385D-05  .515364377213D+04
     .547184000000D+06  .316649675369D-07  .361219611092D+00  .372529029846D-07
     .933840655469D+00  .191718750000D+03  .392277758366D+00 -.850964017496D-08
     .137505727665D-09  .100000000000D+01  .184400000000D+04  .000000000000D+00
     .240000000000D+01  .000000000000D+00 -.107102096081D-07  .150000000000D+02
     .542736000000D+06  .400000000000D+01
 7 15  5 16  7 59 44.0  .462450552732D-03  .250111042988D-11  .000000000000D+00
     .500000000000D+01 -.316250000000D+02  .459662003910D-08 -.160793640823D+01
    -.169314444065D-05  .833069044165D-02  .141002237797D-05  .515371338463D+04
     .547184000000D+06 -.260770320892D-07  .148098657900D+01 -.149011611938D-06
     .970103484910D+00  .357343750000D+03 -.275514903886D+01 -.840356432790D-08
    -.162506769059D-09  .100000000000D+01  .184400000000D+04  .000000000000D+00
     .240000000000D+01  .000000000000D+00 -.111758708954D-07  .500000000000D+01
     .542886000000D+06  .400000000000D+01
31 15  5 16  7 59 44.0  .315774232149D-03 -.102318153949D-11  .000000000000D+00
     .000000000000D+00 -.278437500000D+02  .455840416154D-08 -.177663437771D+01
    -.140070915222D-05  .810005294625D-02  .138580799103D-05  .515377900314D+04
     .547184000000D+06 -.117346644402D-06  .148869700870D+01 -.968575477600D-07
     .974982995498D+00  .362625000000D+03 -.516018546587D+00 -.847571019021D-08
    -.151077721565D-09  .100000000000D+01  .184400000000D+04  .000000000000D+00
     .240000000000D+01  .000000000000D+00 -.135041773319D-07  .000000000000D+00
     .543096000000D+06  .400000000000D+01
